[{"OBJECT_NAME":"UNKNOWN","OBJECT_ID":"","EPOCH":"2026-04-04T05:24:02.045952","MEAN_MOTION":14.06073326,"ECCENTRICITY":0.0154859,"INCLINATION":98.733,"RA_OF_ASC_NODE":199.125,"ARG_OF_PERICENTER":111.7512,"MEAN_ANOMALY":250.0219,"EPHEMERIS_TYPE":0,"CLASSIFICATION_TYPE":"U","NORAD_CAT_ID":87884,"ELEMENT_SET_NO":999,"REV_AT_EPOCH":63417,"BSTAR":0.00041772,"MEAN_MOTION_DOT":7.23e-6,"MEAN_MOTION_DDOT":0},{"OBJECT_NAME":"UNKNOWN","OBJECT_ID":"","EPOCH":"2026-03-27T15:51:13.578912","MEAN_MOTION":13.73127491,"ECCENTRICITY":0.0031922,"INCLINATION":82.9367,"RA_OF_ASC_NODE":222.1462,"ARG_OF_PERICENTER":104.6301,"MEAN_ANOMALY":272.3687,"EPHEMERIS_TYPE":0,"CLASSIFICATION_TYPE":"U","NORAD_CAT_ID":87934,"ELEMENT_SET_NO":999,"REV_AT_EPOCH":61871,"BSTAR":8.285e-5,"MEAN_MOTION_DOT":9.2e-7,"MEAN_MOTION_DDOT":0},{"OBJECT_NAME":"UNKNOWN","OBJECT_ID":"","EPOCH":"2026-04-05T10:16:02.707968","MEAN_MOTION":12.3565742,"ECCENTRICITY":0.0892777,"INCLINATION":28.6184,"RA_OF_ASC_NODE":142.252,"ARG_OF_PERICENTER":93.6627,"MEAN_ANOMALY":276.6298,"EPHEMERIS_TYPE":0,"CLASSIFICATION_TYPE":"U","NORAD_CAT_ID":87991,"ELEMENT_SET_NO":999,"REV_AT_EPOCH":53706,"BSTAR":-0.0051455,"MEAN_MOTION_DOT":-2.55e-5,"MEAN_MOTION_DDOT":0},{"OBJECT_NAME":"UNKNOWN","OBJECT_ID":"2025-241B","EPOCH":"2026-03-18T20:58:45.947424","MEAN_MOTION":15.22548355,"ECCENTRICITY":0.0004488,"INCLINATION":51.6342,"RA_OF_ASC_NODE":29.1833,"ARG_OF_PERICENTER":186.7062,"MEAN_ANOMALY":173.3856,"EPHEMERIS_TYPE":0,"CLASSIFICATION_TYPE":"U","NORAD_CAT_ID":88780,"ELEMENT_SET_NO":999,"REV_AT_EPOCH":114,"BSTAR":0.00035116,"MEAN_MOTION_DOT":7.938e-5,"MEAN_MOTION_DDOT":0},{"OBJECT_NAME":"UNKNOWN","OBJECT_ID":"","EPOCH":"2026-04-01T23:25:42.224160","MEAN_MOTION":14.46425672,"ECCENTRICITY":0.0190322,"INCLINATION":97.8428,"RA_OF_ASC_NODE":277.9346,"ARG_OF_PERICENTER":52.3824,"MEAN_ANOMALY":309.4475,"EPHEMERIS_TYPE":0,"CLASSIFICATION_TYPE":"U","NORAD_CAT_ID":89005,"ELEMENT_SET_NO":999,"REV_AT_EPOCH":55002,"BSTAR":0.00055699,"MEAN_MOTION_DOT":2.463e-5,"MEAN_MOTION_DDOT":0},{"OBJECT_NAME":"UNKNOWN","OBJECT_ID":"","EPOCH":"2026-04-04T12:44:40.703424","MEAN_MOTION":14.96018007,"ECCENTRICITY":0.0021141,"INCLINATION":98.0426,"RA_OF_ASC_NODE":1.7246,"ARG_OF_PERICENTER":313.6789,"MEAN_ANOMALY":46.2679,"EPHEMERIS_TYPE":0,"CLASSIFICATION_TYPE":"U","NORAD_CAT_ID":89029,"ELEMENT_SET_NO":999,"REV_AT_EPOCH":66793,"BSTAR":0.00083387,"MEAN_MOTION_DOT":9.344e-5,"MEAN_MOTION_DDOT":0},{"OBJECT_NAME":"UNKNOWN","OBJECT_ID":"","EPOCH":"2026-04-01T15:43:00.005088","MEAN_MOTION":13.04042441,"ECCENTRICITY":0.0146273,"INCLINATION":100.475,"RA_OF_ASC_NODE":29.921,"ARG_OF_PERICENTER":223.0426,"MEAN_ANOMALY":135.9164,"EPHEMERIS_TYPE":0,"CLASSIFICATION_TYPE":"U","NORAD_CAT_ID":89101,"ELEMENT_SET_NO":999,"REV_AT_EPOCH":56917,"BSTAR":0.0012472,"MEAN_MOTION_DOT":3.75e-6,"MEAN_MOTION_DDOT":0},{"OBJECT_NAME":"UNKNOWN","OBJECT_ID":"","EPOCH":"2026-03-28T13:34:07.983552","MEAN_MOTION":8.88041995,"ECCENTRICITY":0.2924305,"INCLINATION":63.4178,"RA_OF_ASC_NODE":287.317,"ARG_OF_PERICENTER":319.7281,"MEAN_ANOMALY":21.9439,"EPHEMERIS_TYPE":0,"CLASSIFICATION_TYPE":"U","NORAD_CAT_ID":89132,"ELEMENT_SET_NO":999,"REV_AT_EPOCH":33450,"BSTAR":0.0019457,"MEAN_MOTION_DOT":1.441e-5,"MEAN_MOTION_DDOT":0},{"OBJECT_NAME":"UNKNOWN","OBJECT_ID":"","EPOCH":"2026-04-05T06:17:03.274080","MEAN_MOTION":14.64242553,"ECCENTRICITY":0.0093049,"INCLINATION":98.2557,"RA_OF_ASC_NODE":29.1175,"ARG_OF_PERICENTER":60.1065,"MEAN_ANOMALY":300.9341,"EPHEMERIS_TYPE":0,"CLASSIFICATION_TYPE":"U","NORAD_CAT_ID":89146,"ELEMENT_SET_NO":999,"REV_AT_EPOCH":64548,"BSTAR":0.0011233,"MEAN_MOTION_DOT":6.256e-5,"MEAN_MOTION_DDOT":0},{"OBJECT_NAME":"UNKNOWN","OBJECT_ID":"","EPOCH":"2026-03-20T08:17:33.957888","MEAN_MOTION":15.93413522,"ECCENTRICITY":0.0009475,"INCLINATION":97.6294,"RA_OF_ASC_NODE":106.9899,"ARG_OF_PERICENTER":106.8536,"MEAN_ANOMALY":253.3777,"EPHEMERIS_TYPE":0,"CLASSIFICATION_TYPE":"U","NORAD_CAT_ID":89161,"ELEMENT_SET_NO":999,"REV_AT_EPOCH":56376,"BSTAR":0.0031768,"MEAN_MOTION_DOT":0.01120648,"MEAN_MOTION_DDOT":0.00057617},{"OBJECT_NAME":"UNKNOWN","OBJECT_ID":"","EPOCH":"2026-04-04T00:34:01.512768","MEAN_MOTION":14.49691267,"ECCENTRICITY":0.0278446,"INCLINATION":82.0604,"RA_OF_ASC_NODE":116.2928,"ARG_OF_PERICENTER":294.734,"MEAN_ANOMALY":62.5108,"EPHEMERIS_TYPE":0,"CLASSIFICATION_TYPE":"U","NORAD_CAT_ID":89172,"ELEMENT_SET_NO":999,"REV_AT_EPOCH":61814,"BSTAR":0.0025546,"MEAN_MOTION_DOT":0.00016244,"MEAN_MOTION_DDOT":0},{"OBJECT_NAME":"UNKNOWN","OBJECT_ID":"","EPOCH":"2026-04-03T17:09:44.197632","MEAN_MOTION":13.81734135,"ECCENTRICITY":0.0129158,"INCLINATION":99.217,"RA_OF_ASC_NODE":7.2425,"ARG_OF_PERICENTER":218.4976,"MEAN_ANOMALY":140.6911,"EPHEMERIS_TYPE":0,"CLASSIFICATION_TYPE":"U","NORAD_CAT_ID":89183,"ELEMENT_SET_NO":999,"REV_AT_EPOCH":62243,"BSTAR":0.00063646,"MEAN_MOTION_DOT":6.81e-6,"MEAN_MOTION_DDOT":0},{"OBJECT_NAME":"UNKNOWN","OBJECT_ID":"","EPOCH":"2026-04-05T14:20:12.463008","MEAN_MOTION":14.87955259,"ECCENTRICITY":0.0009942,"INCLINATION":98.381,"RA_OF_ASC_NODE":331.174,"ARG_OF_PERICENTER":114.9459,"MEAN_ANOMALY":245.279,"EPHEMERIS_TYPE":0,"CLASSIFICATION_TYPE":"U","NORAD_CAT_ID":89184,"ELEMENT_SET_NO":999,"REV_AT_EPOCH":50906,"BSTAR":0.0032599,"MEAN_MOTION_DOT":0.0002997,"MEAN_MOTION_DDOT":0},{"OBJECT_NAME":"UNKNOWN","OBJECT_ID":"","EPOCH":"2026-04-05T14:01:11.823168","MEAN_MOTION":13.91730927,"ECCENTRICITY":0.0227304,"INCLINATION":98.7671,"RA_OF_ASC_NODE":327.7056,"ARG_OF_PERICENTER":173.662,"MEAN_ANOMALY":186.7503,"EPHEMERIS_TYPE":0,"CLASSIFICATION_TYPE":"U","NORAD_CAT_ID":89213,"ELEMENT_SET_NO":999,"REV_AT_EPOCH":46850,"BSTAR":0.00040174,"MEAN_MOTION_DOT":5.9e-6,"MEAN_MOTION_DDOT":0},{"OBJECT_NAME":"UNKNOWN","OBJECT_ID":"","EPOCH":"2026-04-05T14:31:30.172512","MEAN_MOTION":9.28088052,"ECCENTRICITY":0.2814765,"INCLINATION":62.4816,"RA_OF_ASC_NODE":214.149,"ARG_OF_PERICENTER":111.3682,"MEAN_ANOMALY":280.8575,"EPHEMERIS_TYPE":0,"CLASSIFICATION_TYPE":"U","NORAD_CAT_ID":89251,"ELEMENT_SET_NO":999,"REV_AT_EPOCH":38373,"BSTAR":0.0078834,"MEAN_MOTION_DOT":0.0001339,"MEAN_MOTION_DDOT":0},{"OBJECT_NAME":"UNKNOWN","OBJECT_ID":"","EPOCH":"2026-04-05T05:53:04.909344","MEAN_MOTION":14.43383089,"ECCENTRICITY":0.0012981,"INCLINATION":98.1641,"RA_OF_ASC_NODE":89.8762,"ARG_OF_PERICENTER":168.3546,"MEAN_ANOMALY":191.7948,"EPHEMERIS_TYPE":0,"CLASSIFICATION_TYPE":"U","NORAD_CAT_ID":89261,"ELEMENT_SET_NO":999,"REV_AT_EPOCH":55018,"BSTAR":0.00036417,"MEAN_MOTION_DOT":1.189e-5,"MEAN_MOTION_DDOT":0},{"OBJECT_NAME":"UNKNOWN","OBJECT_ID":"","EPOCH":"2026-04-03T16:26:13.823808","MEAN_MOTION":9.1272395,"ECCENTRICITY":0.286696,"INCLINATION":84.2311,"RA_OF_ASC_NODE":73.5522,"ARG_OF_PERICENTER":200.3667,"MEAN_ANOMALY":347.4511,"EPHEMERIS_TYPE":0,"CLASSIFICATION_TYPE":"U","NORAD_CAT_ID":89304,"ELEMENT_SET_NO":999,"REV_AT_EPOCH":44856,"BSTAR":0.025389,"MEAN_MOTION_DOT":0.00033862,"MEAN_MOTION_DDOT":0}]
